NORAD_CAT_ID,OBJECT_NAME,OBJECT_TYPE,EPOCH,MEAN_MOTION,ECCENTRICITY,INCLINATION,RA_OF_ASC_NODE,ARG_OF_PERICENTER,MEAN_ANOMALY,BSTAR,MEAN_MOTION_DOT,MEAN_MOTION_DDOT,TLE_LINE0,TLE_LINE1,TLE_LINE2,SEMIMAJOR_AXIS,PERIOD,APOGEE,PERIGEE,DECAYED
51783.0,STARLINK-3628,PAYLOAD,2022-05-17 22:00:01,15.23946625,0.0001623,53.2175,107.5261,46.31800000000001,263.5269,-0.031595,-0.00721879,0.0,0 STARLINK-3628,1 51783U 22017R   22137.91668981 -.00721879  00000-0 -31595-1 0  9999,2 51783  53.2175 107.5261 0001623  46.3180 263.5269 15.23946625  1305,6872.087,94.491,495.068,492.837,0.0
51783.0,STARLINK-3628,PAYLOAD,2022-05-18 12:00:00,15.23056578,0.0001594,53.2171,104.8504,49.548,221.3444,-0.032697,-0.00727077,0.0,0 STARLINK-3628,1 51783U 22017R   22138.50001157 -.00727077  00000-0 -32697-1 0  9991,2 51783  53.2171 104.8504 0001594  49.5480 221.3444 15.23056578 14036,6874.764,94.547,497.725,495.534,0.0
51783.0,STARLINK-3628,PAYLOAD,2022-05-18 14:00:01,15.22928723,0.0001492,53.2174,104.4677,46.3969,321.6446,-0.032797,-0.00726553,0.0,0 STARLINK-3628,1 51783U 22017R   22138.58334491 -.00726553  00000-0 -32797-1 0  9998,2 51783  53.2174 104.4677 0001492  46.3969 321.6446 15.22928723  1301,6875.149,94.555,498.04,495.98800000000006,0.0
51783.0,STARLINK-3628,PAYLOAD,2022-05-18 22:00:00,15.22416199,0.0001654,53.2174,102.9391,40.4454,355.8085,-0.033038,-0.00721222,0.0,0 STARLINK-3628,1 51783U 22017R   22138.91667824 -.00721222  00000-0 -33038-1 0  9991,2 51783  53.2174 102.9391 0001654  40.4454 355.8085 15.22416199  1308,6876.691999999999,94.586,499.694,497.42,0.0
51783.0,STARLINK-3628,PAYLOAD,2022-05-19 14:00:01,15.21397863,0.000162,53.2174,99.8874,43.7183,47.1825,-0.034218,-0.00724558,0.0,0 STARLINK-3628,1 51783U 22017R   22139.58335648 -.00724558  00000-0 -34218-1 0  9997,2 51783  53.2174  99.8874 0001620  43.7183  47.1825 15.21397863  1304,6879.76,94.65,502.74,500.511,0.0
51783.0,STARLINK-3628,PAYLOAD,2022-05-19 22:00:00,15.20886921,0.000186,53.2175,98.3624,38.7341,78.4769,-0.034624,-0.00722383,0.0,0 STARLINK-3628,1 51783U 22017R   22139.91667824 -.00722383  00000-0 -34624-1 0  9993,2 51783  53.2175  98.3624 0001860  38.7341  78.4769 15.20886921 14246,6881.301,94.682,504.446,501.886,0.0
51783.0,STARLINK-3628,PAYLOAD,2022-05-20 14:00:01,15.19868076,0.0001814,53.2174,95.3178,41.8264,126.2915,-0.0357829999999999,-0.00724426,0.0,0 STARLINK-3628,1 51783U 22017R   22140.58334491 -.00724426  00000-0 -35783-1 0  9996,2 51783  53.2174  95.3178 0001814  41.8264 126.2915 15.19868076  1301,6884.376,94.745,507.49,504.992,0.0
51783.0,STARLINK-3628,PAYLOAD,2022-05-20 22:00:00,15.19357207,0.0001883,53.2176,93.7967,42.3065,150.3465,-0.03622,-0.00722554,0.0,0 STARLINK-3628,1 51783U 22017R   22140.91667824 -.00722554  00000-0 -36220-1 0  9999,2 51783  53.2176  93.7967 0001883  42.3065 150.3465 15.19357207 14404,6885.919,94.777,509.081,506.487,0.0
51783.0,STARLINK-3628,PAYLOAD,2022-05-21 06:00:00,15.18846084,0.0001823,53.2174,92.2788,45.8821,170.6922,-0.036677,-0.00720966,0.0,0 STARLINK-3628,1 51783U 22017R   22141.25001157 -.00720966  00000-0 -36677-1 0  9999,2 51783  53.2174  92.2788 0001823  45.8821 170.6922 15.18846084  1302,6887.464,94.809,510.584,508.073,0.0
51783.0,STARLINK-3628,PAYLOAD,2022-05-21 14:00:01,15.18338825,0.0001721999999999,53.2175,90.7589,46.4066,193.54,-0.037474,-0.0072551999999999,0.0,0 STARLINK-3628,1 51783U 22017R   22141.58335648 -.00725520  00000-0 -37474-1 0  9997,2 51783  53.2175  90.7589 0001722  46.4066 193.5400 15.18338825  1305,6888.998000000001,94.84,512.049,509.676,0.0
51783.0,STARLINK-3628,PAYLOAD,2022-05-21 20:00:01,15.17955582,0.0001885,53.2175,89.6204,41.4818,125.4815,-0.037794,-0.00723782,0.0,0 STARLINK-3628,1 51783U 22017R   22141.83334491 -.00723782  00000-0 -37794-1 0  9993,2 51783  53.2175  89.6204 0001885  41.4818 125.4815 15.17955582 14533,6890.156999999997,94.864,513.321,510.723,0.0
51783.0,STARLINK-3628,PAYLOAD,2022-05-21 22:00:00,15.17827595,0.0001798,53.2175,89.2416,43.4768,219.1031,-0.037883,-0.00722861,0.0,0 STARLINK-3628,1 51783U 22017R   22141.91667824 -.00722861  00000-0 -37883-1 0  9997,2 51783  53.2175  89.2416 0001798  43.4768 219.1031 15.17827595  1307,6890.545,94.872,513.648,511.171,0.0
51783.0,STARLINK-3628,PAYLOAD,2022-05-22 14:00:01,15.16808686,0.0001569,53.2175,86.2108,47.629,258.5048,-0.039156,-0.00725317,0.0,0 STARLINK-3628,1 51783U 22017R   22142.58334491 -.00725317  00000-0 -39156-1 0  9996,2 51783  53.2175  86.2108 0001569  47.6290 258.5048 15.16808686  1308,6893.63,94.936,516.577,514.413,0.0
51783.0,STARLINK-3628,PAYLOAD,2022-05-22 22:00:01,15.16298052,0.0001716,53.2176,84.6971,41.2301,285.8249,-0.039629,-0.00723541,0.0,0 STARLINK-3628,1 51783U 22017R   22142.91668981 -.00723541  00000-0 -39629-1 0  9999,2 51783  53.2176  84.6971 0001716  41.2301 285.8249 15.16298052 14700,6895.178000000001,94.968,518.226,515.859,0.0
51783.0,STARLINK-3628,PAYLOAD,2022-05-23 14:00:01,15.15277743,0.0001602,53.2175,81.6734,41.8037,325.0659,-0.040819,-0.00723813,0.0,0 STARLINK-3628,1 51783U 22017R   22143.58334491 -.00723813  00000-0 -40819-1 0  9994,2 51783  53.2175  81.6734 0001602  41.8037 325.0659 15.15277743  1306,6898.272,95.032,521.243,519.0319999999998,0.0
51783.0,STARLINK-3628,PAYLOAD,2022-05-23 22:00:01,15.14768446,0.000185,53.2177,80.1635,34.4494,351.5023,-0.04145,-0.00724409,0.0,0 STARLINK-3628,1 51783U 22017R   22143.91668981 -.00724409  00000-0 -41450-1 0  9999,2 51783  53.2177  80.1635 0001850  34.4494 351.5023 15.14768446  1305,6899.819,95.064,522.96,520.4069999999998,0.0
51783.0,STARLINK-3628,PAYLOAD,2022-05-24 06:00:02,15.14255362,0.0001615,53.2174,78.656,43.9247,0.4342,-0.04176,-0.00719596,0.0,0 STARLINK-3628,1 51783U 22017R   22144.25002315 -.00719596  00000-0 -41760-1 0  9995,2 51783  53.2174  78.6560 0001615  43.9247   0.4342 15.14255362 14903,6901.377,95.096,524.357,522.128,0.0
51783.0,STARLINK-3628,PAYLOAD,2022-05-24 12:09:07,15.15316108,0.000282,53.2187,77.4887,35.6201,324.4982,-0.010748,-0.0019965,0.0,0 STARLINK-3628,1 51783U 22017R   22144.50634163 -.00199650  00000-0 -10748-1 0  9990,2 51783  53.2187  77.4887 0002820  35.6201 324.4982 15.15316108 14943,6898.156,95.03,521.966,518.076,0.0
51783.0,STARLINK-3628,PAYLOAD,2022-05-24 22:00:00,15.13238365,0.0001794,53.2176,75.6405,38.9062,40.3643,-0.043287,-0.00724441,0.0,0 STARLINK-3628,1 51783U 22017R   22144.91667824 -.00724441  00000-0 -43287-1 0  9991,2 51783  53.2176  75.6405 0001794  38.9062  40.3643 15.13238365 15009,6904.469,95.16,527.573,525.095,0.0
51783.0,STARLINK-3628,PAYLOAD,2022-05-25 14:00:01,15.12216155,0.00017,53.2175,72.6305,43.522,68.2736,-0.0443,-0.00720659,0.0,0 STARLINK-3628,1 51783U 22017R   22145.58334491 -.00720659  00000-0 -44300-1 0  9990,2 51783  53.2175  72.6305 0001700  43.5220  68.2736 15.12216155  1301,6907.58,95.224,530.619,528.271,0.0
51783.0,STARLINK-3628,PAYLOAD,2022-05-25 22:00:00,15.11707852,0.0001846,53.2176,71.128,41.4191,85.7184,-0.045131,-0.00723608,0.0,0 STARLINK-3628,1 51783U 22017R   22145.91667824 -.00723608  00000-0 -45131-1 0  9996,2 51783  53.2176  71.1280 0001846  41.4191  85.7184 15.11707852  1302,6909.128000000002,95.257,532.269,529.7180000000002,0.0
51783.0,STARLINK-3628,PAYLOAD,2022-05-26 06:00:00,15.11193522,0.0001686,53.2173,69.6274,48.2821,93.5863,-0.04527,-0.00716021,0.0,0 STARLINK-3628,1 51783U 22017R   22146.25001157 -.00716021  00000-0 -45270-1 0  9990,2 51783  53.2173  69.6274 0001686  48.2821  93.5863 15.11193522 15209,6910.696,95.289,533.726,531.396,0.0
51783.0,STARLINK-3628,PAYLOAD,2022-05-26 14:00:01,15.10685942,0.0001716,53.2174,68.1251,46.3699,109.6158,-0.046184,-0.00719947,0.0,0 STARLINK-3628,1 51783U 22017R   22146.58334491 -.00719947  00000-0 -46184-1 0  9991,2 51783  53.2174  68.1251 0001716  46.3699 109.6158 15.10685942  1308,6912.244000000002,95.321,535.295,532.923,0.0
51783.0,STARLINK-3628,PAYLOAD,2022-05-26 22:00:00,15.10177106,0.00019,53.2176,66.6263,41.7187,127.7707,-0.046996,-0.00722187,0.0,0 STARLINK-3628,1 51783U 22017R   22146.91667824 -.00722187  00000-0 -46996-1 0  9998,2 51783  53.2176  66.6263 0001900  41.7187 127.7707 15.10177106  1301,6913.795999999999,95.353,536.975,534.3480000000002,0.0
51783.0,STARLINK-3628,PAYLOAD,2022-05-27 02:01:32,15.11379978,4.07e-05,53.2194,65.8643,188.4447,171.6539,-0.0099341,-0.00165985,0.0,0 STARLINK-3628,1 51783U 22017R   22147.08440146 -.00165985  00000-0 -99341-2 0  9993,2 51783  53.2194  65.8643 0000407 188.4447 171.6539 15.11379978 15334,6910.128000000002,95.277,532.274,531.711,0.0
51783.0,STARLINK-3628,PAYLOAD,2022-05-27 14:00:01,15.09014235,0.0001688,53.2174,63.6297,46.9287,147.7555,-0.016683,-0.00257667,0.0,0 STARLINK-3628,1 51783U 22017R   22147.58334491 -.00257667  00000-0 -16683-1 0  9999,2 51783  53.2174  63.6297 0001688  46.9287 147.7555 15.09014235  1308,6917.348000000001,95.427,540.381,538.045,0.0
51783.0,STARLINK-3628,PAYLOAD,2022-05-27 16:00:00,15.08849805,0.0001774,53.2175,63.2542,43.4871,244.1855,-0.0012593,-0.00020279,0.0,0 STARLINK-3628,1 51783U 22017R   22147.66667824 -.00020279  00000-0 -12593-2 0  9991,2 51783  53.2175  63.2542 0001774  43.4871 244.1855 15.08849805 15426,6917.85,95.437,540.943,538.488,0.0
51783.0,STARLINK-3628,PAYLOAD,2022-05-27 22:00:01,15.08837431,0.000189,53.2175,62.1341,42.1985,164.2364,-5.7369e-05,-1.201e-05,0.0,0 STARLINK-3628,1 51783U 22017R   22147.91668981 -.00001201  00000-0 -57369-4 0  9990,2 51783  53.2175  62.1341 0001890  42.1985 164.2364 15.08837431  1303,6917.888000000001,95.438,541.061,538.446,0.0
51783.0,STARLINK-3628,PAYLOAD,2022-05-28 06:00:02,15.08845918,0.0001834,53.2175,60.6312,45.0467,173.0177,0.0030822,0.00049116,0.0,0 STARLINK-3628,1 51783U 22017R   22148.25002315  .00049116  00000-0  30822-2 0  9999,2 51783  53.2175  60.6312 0001834  45.0467 173.0177 15.08845918 15516,6917.861999999999,95.437,540.996,538.4590000000002,0.0
